OBJECT_NAME,OBJECT_ID,EPOCH,MEAN_MOTION,ECCENTRICITY,INCLINATION,RA_OF_ASC_NODE,ARG_OF_PERICENTER,MEAN_ANOMALY,EPHEMERIS_TYPE,CLASSIFICATION_TYPE,NORAD_CAT_ID,ELEMENT_SET_NO,REV_AT_EPOCH,BSTAR,MEAN_MOTION_DOT,MEAN_MOTION_DDOT
EUTELSAT HOTBIRD 13C,2008-065A,2026-07-17T21:35:20.065056,1.00269978,.00034803,3.0275,78.8261,39.1483,91.2465,0,U,33459,999,4765,0,-.293E-5,0
EXPRESS-AM44,2009-007A,2026-07-17T20:03:50.762016,1.00271197,.0003627,3.5405,78.0187,31.9945,115.5655,0,U,33595,999,5259,0,-.1E-5,0
NSS-9,2009-008A,2026-07-17T19:16:30.806976,1.00273104,.00019621,1.3391,82.3544,22.8618,302.5937,0,U,33749,999,6382,0,.62E-6,0
TELSTAR 11N,2009-009A,2026-07-17T21:38:57.217632,1.00272491,.00022962,0.0168,313.9397,153.5327,115.4173,0,U,34111,999,4655,0,-.26E-5,0
WGS F2 (USA 204),2009-017A,2026-07-17T20:23:21.748992,1.00271953,.00004612,0.0164,57.3654,129.2657,112.3524,0,U,34713,999,4592,0,.59E-6,0
SES-7 (PROTOSTAR 2),2009-027A,2026-07-17T22:20:32.130816,1.00270863,.00002705,0.0152,54.8603,174.0799,150.1714,0,U,34941,999,6293,0,-.354E-5,0
MEASAT-3A,2009-032A,2026-07-17T19:10:01.428960,1.00272069,.00027496,0.0275,338.0349,128.9330,276.1358,0,U,35362,999,833,0,-.12E-5,0
EWS-G3 (GOES 14),2009-033A,2026-07-17T22:24:46.723968,1.00096891,.00020228,1.7672,82.6590,39.6458,272.9884,0,U,35491,999,689,0,-.369E-5,0
FM-5,2009-034A,2026-07-17T21:25:08.226912,1.00271429,.00007626,0.0360,248.4217,114.2287,168.1635,0,U,35493,999,4695,0,-.209E-5,0
TERRESTAR-1,2009-035A,2026-07-17T14:27:25.119648,1.00272954,.00025041,5.1944,48.7674,61.3853,291.1279,0,U,35496,999,6243,0,-.68E-6,0
ASIASAT 5,2009-042A,2026-07-18T00:00:55.122336,1.00265907,.0001449,0.0341,79.9915,15.9422,300.6837,0,U,35696,999,6201,0,0,0
JCSAT-12 (JCSAT-RA),2009-044A,2026-07-17T22:27:16.485408,1.00271086,.00009122,0.0492,262.2726,287.3515,214.9902,0,U,35755,999,6191,0,-.337E-5,0
OPTUS D3,2009-044B,2026-07-17T14:00:50.167872,1.00270614,.00032369,0.8945,268.1875,211.2815,182.2669,0,U,35756,999,6187,0,-.155E-5,0
NIMIQ 5,2009-050A,2026-07-17T21:28:52.867776,1.00272696,.00027669,0.0434,253.9028,215.0032,76.3109,0,U,35873,999,6165,0,-.266E-5,0
AMAZONAS 2,2009-054A,2026-07-17T21:29:07.844352,1.00273389,.00032746,1.8932,82.6543,29.7891,73.5363,0,U,35942,999,6149,0,-.269E-5,0
COMSATBW-1,2009-054B,2026-07-17T22:07:40.863072,1.00270806,.0002759,0.0641,164.2173,312.7745,213.6631,0,U,35943,999,6161,0,.16E-6,0
NSS-12,2009-058A,2026-07-17T20:23:14.260704,1.00271779,.00048951,0.0854,269.3177,170.9699,218.1637,0,U,36032,999,6122,0,.63E-6,0
THOR 6,2009-058B,2026-07-17T20:06:42.986592,1.00271740,.00016982,0.0187,94.3445,23.4064,118.7215,0,U,36033,999,6131,0,-.19E-6,0
INTELSAT 14 (IS-14),2009-064A,2026-07-17T21:36:49.921056,1.00269953,.00024379,0.0177,44.2571,73.3246,97.3459,0,U,36097,999,6091,0,0,0
EUTELSAT 36B,2009-065A,2026-07-17T20:21:21.939840,1.00269287,.00055954,0.5663,81.3350,32.6963,177.4611,0,U,36101,999,6101,0,.103E-5,0
INTELSAT 15 (IS-15),2009-067A,2026-07-17T22:13:55.265376,1.00272858,.00022798,0.0161,45.5381,70.4516,238.3629,0,U,36106,999,4153,0,-.194E-5,0
WGS F3 (USA 211),2009-068A,2026-07-17T14:22:03.135360,1.00271133,.00005935,0.2966,85.6659,92.0364,203.2232,0,U,36108,999,4689,0,.55E-6,0
DIRECTV 12,2009-075A,2026-07-17T14:29:47.392800,1.00272808,.0000254,0.0447,222.1598,342.1549,205.8215,0,U,36131,999,4685,0,-.113E-5,0
BEIDOU-2 G1,2010-001A,2026-07-17T22:29:46.245984,1.00271019,.00018823,4.3642,60.3034,286.9599,66.3844,0,U,36287,999,6047,0,-.29E-5,0
SDO,2010-005A,2026-07-17T05:45:45.515232,1.00277241,.000179,34.7122,85.8846,45.4971,147.9067,0,U,36395,999,6036,0,-.96E-6,0
INTELSAT 16 (IS-16),2010-006A,2026-07-17T21:27:52.964064,1.00271907,.0002343,0.0168,60.3280,75.2782,45.8557,0,U,36397,999,5996,0,-.253E-5,0
EWS-G2 (GOES 15),2010-008A,2026-07-17T22:07:40.863072,1.00268981,.00053292,1.3604,82.4294,53.9198,194.5823,0,U,36411,999,5994,0,.13E-6,0
ECHOSTAR 14,2010-010A,2026-07-17T21:15:46.625184,1.00272094,.00019607,0.0409,241.3909,218.2817,36.0481,0,U,36499,999,4686,0,-.8E-7,0
SES-1,2010-016A,2026-07-17T21:20:53.633760,1.00271884,.00024831,0.0572,270.5197,200.8809,43.5161,0,U,36516,999,5934,0,-.123E-5,0
ASTRA 3B,2010-021A,2026-07-17T20:08:38.692608,1.00271363,.00043421,1.5458,83.1791,23.8901,154.2318,0,U,36581,999,5917,0,.127E-5,0
COMSATBW-2,2010-021B,2026-07-17T19:53:43.740672,1.00268119,.00022055,0.0437,175.3190,308.7749,123.2072,0,U,36582,999,5926,0,.79E-6,0
BEIDOU-2 G3,2010-024A,2026-07-17T17:04:19.228224,1.00268200,.00069352,4.5863,61.3773,359.5938,210.1623,0,U,36590,999,5907,0,-.144E-5,0
