EUTELSAT HOTBIRD 13C    
1 33459U 08065A   26198.89953779 -.00000293  00000+0  00000+0 0  9999
2 33459   3.0275  78.8261 0003480  39.1483  91.2465  1.00269978 47659
EXPRESS-AM44            
1 33595U 09007A   26198.83600419 -.00000100  00000+0  00000+0 0  9998
2 33595   3.5405  78.0187 0003627  31.9945 115.5655  1.00271197 52591
NSS-9                   
1 33749U 09008A   26198.80313434  .00000062  00000+0  00000+0 0  9991
2 33749   1.3391  82.3544 0001962  22.8618 302.5937  1.00273104 63822
TELSTAR 11N             
1 34111U 09009A   26198.90205113 -.00000260  00000+0  00000+0 0  9992
2 34111   0.0168 313.9397 0002296 153.5327 115.4173  1.00272491 46555
WGS F2 (USA 204)        
1 34713U 09017A   26198.84955728  .00000059  00000+0  00000+0 0  9991
2 34713   0.0164  57.3654 0000461 129.2657 112.3524  1.00271953 45920
SES-7 (PROTOSTAR 2)     
1 34941U 09027A   26198.93092744 -.00000354  00000+0  00000+0 0  9994
2 34941   0.0152  54.8603 0000270 174.0799 150.1714  1.00270863 62939
MEASAT-3A               
1 35362U 09032A   26198.79862765 -.00000120  00000+0  00000+0 0  9991
2 35362   0.0275 338.0349 0002749 128.9330 276.1358  1.00272069  8336
EWS-G3 (GOES 14)        
1 35491U 09033A   26198.93387412 -.00000369  00000+0  00000+0 0  9997
2 35491   1.7672  82.6590 0002022  39.6458 272.9884  1.00096891  6895
FM-5                    
1 35493U 09034A   26198.89245633 -.00000209  00000+0  00000+0 0  9996
2 35493   0.0360 248.4217 0000762 114.2287 168.1635  1.00271429 46953
TERRESTAR-1             
1 35496U 09035A   26198.60237407 -.00000068  00000+0  00000+0 0  9992
2 35496   5.1944  48.7674 0002504  61.3853 291.1279  1.00272954 62431
ASIASAT 5               
1 35696U 09042A   26199.00063799  .00000000  00000+0  00000+0 0  9993
2 35696   0.0341  79.9915 0001449  15.9422 300.6837  1.00265907 62016
JCSAT-12 (JCSAT-RA)     
1 35755U 09044A   26198.93560747 -.00000337  00000+0  00000+0 0  9991
2 35755   0.0492 262.2726 0000912 287.3515 214.9902  1.00271086 61911
OPTUS D3                
1 35756U 09044B   26198.58391398 -.00000155  00000+0  00000+0 0  9995
2 35756   0.8945 268.1875 0003236 211.2815 182.2669  1.00270614 61872
NIMIQ 5                 
1 35873U 09050A   26198.89505634 -.00000266  00000+0  00000+0 0  9999
2 35873   0.0434 253.9028 0002766 215.0032  76.3109  1.00272696 61659
AMAZONAS 2              
1 35942U 09054A   26198.89522968 -.00000269  00000+0  00000+0 0  9992
2 35942   1.8932  82.6543 0003274  29.7891  73.5363  1.00273389 61498
COMSATBW-1              
1 35943U 09054B   26198.92200073  .00000016  00000+0  00000+0 0  9996
2 35943   0.0641 164.2173 0002759 312.7745 213.6631  1.00270806 61613
NSS-12                  
1 36032U 09058A   26198.84947061  .00000063  00000+0  00000+0 0  9998
2 36032   0.0854 269.3177 0004895 170.9699 218.1637  1.00271779 61228
THOR 6                  
1 36033U 09058B   26198.83799753 -.00000019  00000+0  00000+0 0  9993
2 36033   0.0187  94.3445 0001698  23.4064 118.7215  1.00271740 61313
INTELSAT 14 (IS-14)     
1 36097U 09064A   26198.90057779  .00000000  00000+0  00000+0 0  9992
2 36097   0.0177  44.2571 0002437  73.3246  97.3459  1.00269953 60914
EUTELSAT 36B            
1 36101U 09065A   26198.84817060  .00000103  00000+0  00000+0 0  9993
2 36101   0.5663  81.3350 0005595  32.6963 177.4611  1.00269287 61016
INTELSAT 15 (IS-15)     
1 36106U 09067A   26198.92633409 -.00000194  00000+0  00000+0 0  9993
2 36106   0.0161  45.5381 0002279  70.4516 238.3629  1.00272858 41534
WGS F3 (USA 211)        
1 36108U 09068A   26198.59864740  .00000055  00000+0  00000+0 0  9998
2 36108   0.2966  85.6659 0000593  92.0364 203.2232  1.00271133 46892
DIRECTV 12              
1 36131U 09075A   26198.60402075 -.00000113  00000+0  00000+0 0  9999
2 36131   0.0447 222.1598 0000254 342.1549 205.8215  1.00272808 46853
BEIDOU-2 G1             
1 36287U 10001A   26198.93734081 -.00000290  00000+0  00000+0 0  9999
2 36287   4.3642  60.3034 0001882 286.9599  66.3844  1.00271019 60479
SDO                     
1 36395U 10005A   26198.24011013 -.00000096  00000+0  00000+0 0  9994
2 36395  34.7122  85.8846 0001790  45.4971 147.9067  1.00277241 60366
INTELSAT 16 (IS-16)     
1 36397U 10006A   26198.89436301 -.00000253  00000+0  00000+0 0  9994
2 36397   0.0168  60.3280 0002343  75.2782  45.8557  1.00271907 59967
EWS-G2 (GOES 15)        
1 36411U 10008A   26198.92200073  .00000013  00000+0  00000+0 0  9995
2 36411   1.3604  82.4294 0005329  53.9198 194.5823  1.00268981 59948
ECHOSTAR 14             
1 36499U 10010A   26198.88595631 -.00000008  00000+0  00000+0 0  9991
2 36499   0.0409 241.3909 0001960 218.2817  36.0481  1.00272094 46860
SES-1                   
1 36516U 10016A   26198.88950965 -.00000123  00000+0  00000+0 0  9990
2 36516   0.0572 270.5197 0002483 200.8809  43.5161  1.00271884 59344
ASTRA 3B                
1 36581U 10021A   26198.83933672  .00000127  00000+0  00000+0 0  9992
2 36581   1.5458  83.1791 0004342  23.8901 154.2318  1.00271363 59172
COMSATBW-2              
1 36582U 10021B   26198.82897848  .00000079  00000+0  00000+0 0  9992
2 36582   0.0437 175.3190 0002205 308.7749 123.2072  1.00268119 59260
BEIDOU-2 G3             
1 36590U 10024A   26198.71133366 -.00000144  00000+0  00000+0 0  9994
2 36590   4.5863  61.3773 0006935 359.5938 210.1623  1.00268200 59078
